[{"OBJECT_NAME":"TIANMU-1 10","OBJECT_ID":"2023-101D","EPOCH":"2026-03-09T23:06:46.939392","MEAN_MOTION":15.2921896,"ECCENTRICITY":0.00069292,"INCLINATION":97.2749,"RA_OF_ASC_NODE":122.1027,"ARG_OF_PERICENTER":133.6162,"MEAN_ANOMALY":226.5654,"EPHEMERIS_TYPE":0,"CLASSIFICATION_TYPE":"U","NORAD_CAT_ID":57402,"ELEMENT_SET_NO":999,"REV_AT_EPOCH":14647,"BSTAR":0.00032238884,"MEAN_MOTION_DOT":9.075e-5,"MEAN_MOTION_DDOT":0},{"OBJECT_NAME":"STARLINK-35976","OBJECT_ID":"2025-265U","EPOCH":"2026-03-09T21:57:14.393952","MEAN_MOTION":15.27600321,"ECCENTRICITY":0.00014722,"INCLINATION":42.9985,"RA_OF_ASC_NODE":277.0216,"ARG_OF_PERICENTER":268.9183,"MEAN_ANOMALY":91.15,"EPHEMERIS_TYPE":0,"CLASSIFICATION_TYPE":"U","NORAD_CAT_ID":66534,"ELEMENT_SET_NO":999,"REV_AT_EPOCH":1714,"BSTAR":0.00087417326,"MEAN_MOTION_DOT":0.00023886,"MEAN_MOTION_DDOT":0}]
